1 6916U          19330.72777778  .00000000  00000-0  00000-0 0 00000
2 6916 097.7480 90.8150 0000000 000.0000 309.4330 15.01914300000000
1 6916U          19330.81041667  .00000000  00000-0  00000-0 0 00000
2 6916 097.7480 90.8960 0000000 000.0000 035.6830 15.01914300000000
1 6916U          19330.87916667  .00000000  00000-0  00000-0 0 00000
2 6916 097.7480 90.9640 0000000 000.0000 046.9330 15.01914300000000
1 6916U          19330.96944444  .00000000  00000-0  00000-0 0 00000
2 6916 097.7480 91.0530 0000000 000.0000 174.4330 15.01914300000000
1 6916U          19331.06458333  .00000000  00000-0  00000-0 0 00000
2 6916 097.7480 91.1470 0000000 000.0000 328.1830 15.01914300000000
1 6916U          19331.13263889  .00000000  00000-0  00000-0 0 00000
2 6916 097.7480 91.2140 0000000 000.0000 335.6830 15.01914300000000
1 6916U          19331.23541667  .00000000  00000-0  00000-0 0 00000
2 6916 097.7480 91.3150 0000000 000.0000 170.6840 15.01914300000000
1 6916U          19331.30277778  .00000000  00000-0  00000-0 0 00000
2 6916 097.7480 91.3810 0000000 000.0000 174.4340 15.01914300000000
1 6916U          19331.41666667  .00000000  00000-0  00000-0 0 00000
2 6916 097.7480 91.4940 0000000 000.0000 069.4340 15.01914300000000
1 6916U          19331.48055556  .00000000  00000-0  00000-0 0 00000
2 6916 097.7480 91.5570 0000000 000.0000 054.4340 15.01914300000000
1 6916U          19331.55416667  .00000000  00000-0  00000-0 0 00000
2 6916 097.7480 91.6290 0000000 000.0000 091.9340 15.01914300000000
1 6916U          19331.62986111  .00000000  00000-0  00000-0 0 00000
2 6916 097.7480 91.7040 0000000 000.0000 140.6840 15.01914300000000
1 6916U          19331.72638889  .00000000  00000-0  00000-0 0 00000
2 6916 097.7480 91.7990 0000000 000.0000 301.9350 15.01914300000000
1 6916U          19331.80833333  .00000000  00000-0  00000-0 0 00000
2 6916 097.7480 91.8800 0000000 000.0000 024.4350 15.01914300000000
1 6916U          19331.88125000  .00000000  00000-0  00000-0 0 00000
2 6916 097.7480 91.9520 0000000 000.0000 058.1850 15.01914300000000
1 6916U          19331.96666667  .00000000  00000-0  00000-0 0 00000
2 6916 097.7480 92.0360 0000000 000.0000 159.4350 15.01914300000000
1 6916U          19332.07500000  .00000000  00000-0  00000-0 0 00000
2 6916 097.7480 92.1430 0000000 000.0000 024.4350 15.01914300000000
1 6916U          19332.14791667  .00000000  00000-0  00000-0 0 00000
2 6916 097.7480 92.2150 0000000 000.0000 058.1850 15.01914300000000
1 6916U          19332.24305556  .00000000  00000-0  00000-0 0 00000
2 6916 097.7480 92.3080 0000000 000.0000 211.9360 15.01914300000000
1 6916U          19332.33194444  .00000000  00000-0  00000-0 0 00000
2 6916 097.7480 92.3960 0000000 000.0000 331.9360 15.01914300000000
1 6916U          19332.39097222  .00000000  00000-0  00000-0 0 00000
2 6916 097.7480 92.4540 0000000 000.0000 290.6860 15.01914300000000
1 6916U          19332.47222222  .00000000  00000-0  00000-0 0 00000
2 6916 097.7480 92.5340 0000000 000.0000 009.4360 15.01914300000000
1 6916U          19332.57430556  .00000000  00000-0  00000-0 0 00000
2 6916 097.7480 92.6350 0000000 000.0000 200.6860 15.01914300000000
1 6916U          19332.63611111  .00000000  00000-0  00000-0 0 00000
2 6916 097.7480 92.6960 0000000 000.0000 174.4360 15.01914300000000
1 6916U          19332.72638889  .00000000  00000-0  00000-0 0 00000
2 6916 097.7480 92.7850 0000000 000.0000 301.9370 15.01914300000000
1 6916U          19332.83194444  .00000000  00000-0  00000-0 0 00000
2 6916 097.7480 92.8890 0000000 000.0000 151.9370 15.01914300000000
1 6916U          19332.88194444  .00000000  00000-0  00000-0 0 00000
2 6916 097.7480 92.9380 0000000 000.0000 061.9370 15.01914300000000
