NORAD_CAT_ID,EPOCH,MEAN_MOTION,ECCENTRICITY,INCLINATION,RA_OF_ASC_NODE,ARG_OF_PERICENTER,MEAN_ANOMALY,SEMIMAJOR_AXIS,PERIOD,APOGEE,PERIGEE
6916,2019-11-26 17:28:00,15.019143,0.0,97.74799999999999,90.815,0.0,309.433,6939.130783,95.87799999999999,560.993783,560.993783
6916,2019-11-26 19:27:00,15.019143,0.0,97.74799999999999,90.896,0.0,35.683,6939.130783,95.87799999999999,560.993783,560.993783
6916,2019-11-26 21:06:00,15.019143,0.0,97.74799999999999,90.964,0.0,46.933,6939.130783,95.87799999999999,560.993783,560.993783
6916,2019-11-26 23:16:00,15.019143,0.0,97.74799999999999,91.053,0.0,174.433,6939.130783,95.87799999999999,560.993783,560.993783
6916,2019-11-27 01:33:00,15.019143,0.0,97.74799999999999,91.147,0.0,328.18300000000005,6939.130783,95.87799999999999,560.993783,560.993783
6916,2019-11-27 03:11:00,15.019143,0.0,97.74799999999999,91.214,0.0,335.68300000000005,6939.130783,95.87799999999999,560.993783,560.993783
6916,2019-11-27 05:39:00,15.019143,0.0,97.74799999999999,91.315,0.0,170.68400000000003,6939.130783,95.87799999999999,560.993783,560.993783
6916,2019-11-27 07:16:00,15.019143,0.0,97.74799999999999,91.381,0.0,174.43400000000003,6939.130783,95.87799999999999,560.993783,560.993783
6916,2019-11-27 10:00:00,15.019143,0.0,97.74799999999999,91.494,0.0,69.434,6939.130783,95.87799999999999,560.993783,560.993783
6916,2019-11-27 11:32:00,15.019143,0.0,97.74799999999999,91.557,0.0,54.434,6939.130783,95.87799999999999,560.993783,560.993783
6916,2019-11-27 13:18:00,15.019143,0.0,97.74799999999999,91.62899999999999,0.0,91.934,6939.130783,95.87799999999999,560.993783,560.993783
6916,2019-11-27 15:07:00,15.019143,0.0,97.74799999999999,91.704,0.0,140.684,6939.130783,95.87799999999999,560.993783,560.993783
6916,2019-11-27 17:26:00,15.019143,0.0,97.74799999999999,91.79899999999999,0.0,301.935,6939.130783,95.87799999999999,560.993783,560.993783
6916,2019-11-27 19:24:00,15.019143,0.0,97.74799999999999,91.88,0.0,24.435,6939.130783,95.87799999999999,560.993783,560.993783
6916,2019-11-27 21:09:00,15.019143,0.0,97.74799999999999,91.95200000000001,0.0,58.185,6939.130783,95.87799999999999,560.993783,560.993783
6916,2019-11-27 23:12:00,15.019143,0.0,97.74799999999999,92.036,0.0,159.435,6939.130783,95.87799999999999,560.993783,560.993783
6916,2019-11-28 01:48:00,15.019143,0.0,97.74799999999999,92.14299999999999,0.0,24.435,6939.130783,95.87799999999999,560.993783,560.993783
6916,2019-11-28 03:33:00,15.019143,0.0,97.74799999999999,92.215,0.0,58.185,6939.130783,95.87799999999999,560.993783,560.993783
6916,2019-11-28 05:50:00,15.019143,0.0,97.74799999999999,92.30799999999999,0.0,211.93599999999998,6939.130783,95.87799999999999,560.993783,560.993783
6916,2019-11-28 07:58:00,15.019143,0.0,97.74799999999999,92.396,0.0,331.936,6939.130783,95.87799999999999,560.993783,560.993783
6916,2019-11-28 09:23:00,15.019143,0.0,97.74799999999999,92.454,0.0,290.686,6939.130783,95.87799999999999,560.993783,560.993783
6916,2019-11-28 11:20:00,15.019143,0.0,97.74799999999999,92.53399999999999,0.0,9.436,6939.130783,95.87799999999999,560.993783,560.993783
6916,2019-11-28 13:47:00,15.019143,0.0,97.74799999999999,92.635,0.0,200.68599999999998,6939.130783,95.87799999999999,560.993783,560.993783
6916,2019-11-28 15:16:00,15.019143,0.0,97.74799999999999,92.696,0.0,174.43599999999998,6939.130783,95.87799999999999,560.993783,560.993783
6916,2019-11-28 17:26:00,15.019143,0.0,97.74799999999999,92.785,0.0,301.937,6939.130783,95.87799999999999,560.993783,560.993783
6916,2019-11-28 19:58:00,15.019143,0.0,97.74799999999999,92.889,0.0,151.937,6939.130783,95.87799999999999,560.993783,560.993783
6916,2019-11-28 21:10:00,15.019143,0.0,97.74799999999999,92.93799999999999,0.0,61.937,6939.130783,95.87799999999999,560.993783,560.993783
